{
  "type": "FeatureCollection",
  "features": [
    {
      "type": "Feature",
      "geometry": {
        "type": "LineString",
        "coordinates": [
          [
            16.081130382775118,
            40.315711179768854
          ],
          [
            16.090406909158297,
            40.30096070875418
          ],
          [
            16.10325956937799,
            40.28801922416753
          ]
        ]
      },
      "properties": {
        "tipo": "strada_ams",
        "area_px": 3550,
        "lon_c": 16.090407,
        "lat_c": 40.300961
      }
    },
    {
      "type": "Feature",
      "geometry": {
        "type": "LineString",
        "coordinates": [
          [
            16.129052033492822,
            40.30089255063508
          ],
          [
            16.141757992975833,
            40.29706147985603
          ],
          [
            16.154844497607655,
            40.292081473852846
          ]
        ]
      },
      "properties": {
        "tipo": "strada_ams",
        "area_px": 3083,
        "lon_c": 16.141758,
        "lat_c": 40.297061
      }
    },
    {
      "type": "Feature",
      "geometry": {
        "type": "LineString",
        "coordinates": [
          [
            16.08673744019139,
            40.30066369149788
          ],
          [
            16.087939456930005,
            40.29958704716921
          ],
          [
            16.089204545454546,
            40.298603959263076
          ]
        ]
      },
      "properties": {
        "tipo": "strada_ams",
        "area_px": 307,
        "lon_c": 16.087939,
        "lat_c": 40.299587
      }
    },
    {
      "type": "Feature",
      "geometry": {
        "type": "LineString",
        "coordinates": [
          [
            16.088755980861244,
            40.297974596635775
          ],
          [
            16.08976936108119,
            40.29739136530052
          ],
          [
            16.09055023923445,
            40.29688751573407
          ]
        ]
      },
      "properties": {
        "tipo": "strada_ams",
        "area_px": 191,
        "lon_c": 16.089769,
        "lat_c": 40.297391
      }
    },
    {
      "type": "Feature",
      "geometry": {
        "type": "LineString",
        "coordinates": [
          [
            16.113800837320575,
            40.29128046687264
          ],
          [
            16.118443663629122,
            40.289743993480045
          ],
          [
            16.123370215311002,
            40.28738986154022
          ]
        ]
      },
      "properties": {
        "tipo": "strada_ams",
        "area_px": 859,
        "lon_c": 16.118444,
        "lat_c": 40.289744
      }
    },
    {
      "type": "Feature",
      "geometry": {
        "type": "LineString",
        "coordinates": [
          [
            16.045992822966507,
            40.240016020139606
          ],
          [
            16.049327240805958,
            40.23807172418514
          ],
          [
            16.053767942583733,
            40.23589655566998
          ]
        ]
      },
      "properties": {
        "tipo": "strada_ams",
        "area_px": 682,
        "lon_c": 16.049327,
        "lat_c": 40.238072
      }
    },
    {
      "type": "Feature",
      "geometry": {
        "type": "LineString",
        "coordinates": [
          [
            16.077168062200958,
            40.192699393523284
          ],
          [
            16.077719947852266,
            40.19203306628815
          ],
          [
            16.07851375598086,
            40.191440668268676
          ]
        ]
      },
      "properties": {
        "tipo": "strada_ams",
        "area_px": 178,
        "lon_c": 16.07772,
        "lat_c": 40.192033
      }
    },
    {
      "type": "Feature",
      "geometry": {
        "type": "LineString",
        "coordinates": [
          [
            16.076121411483253,
            40.19212724568028
          ],
          [
            16.076710619766747,
            40.191614815768396
          ],
          [
            16.077541866028707,
            40.191097379562876
          ]
        ]
      },
      "properties": {
        "tipo": "strada_ams",
        "area_px": 160,
        "lon_c": 16.076711,
        "lat_c": 40.191615
      }
    },
    {
      "type": "Feature",
      "geometry": {
        "type": "LineString",
        "coordinates": [
          [
            16.120379784688996,
            40.18440324979974
          ],
          [
            16.122916616950445,
            40.17611495349051
          ],
          [
            16.127108253588517,
            40.16718159972537
          ]
        ]
      },
      "properties": {
        "tipo": "strada_ams",
        "area_px": 802,
        "lon_c": 16.122917,
        "lat_c": 40.176115
      }
    },
    {
      "type": "Feature",
      "geometry": {
        "type": "LineString",
        "coordinates": [
          [
            16.33682482840943,
            40.18893480257116
          ],
          [
            16.39371725568557,
            40.176865117111014
          ],
          [
            16.45,
            40.16706841138659
          ]
        ]
      },
      "properties": {
        "tipo": "strada_ams",
        "area_px": 13276,
        "lon_c": 16.393717,
        "lat_c": 40.176865
      }
    },
    {
      "type": "Feature",
      "geometry": {
        "type": "LineString",
        "coordinates": [
          [
            15.958320950965824,
            40.490061686086364
          ],
          [
            15.964823387154501,
            40.47459895258572
          ],
          [
            15.968945022288262,
            40.45887594242632
          ]
        ]
      },
      "properties": {
        "tipo": "strada_ams",
        "area_px": 4629,
        "lon_c": 15.964823,
        "lat_c": 40.474599
      }
    },
    {
      "type": "Feature",
      "geometry": {
        "type": "LineString",
        "coordinates": [
          [
            15.973179791976225,
            40.48800548320768
          ],
          [
            15.978701098209374,
            40.48254715416438
          ],
          [
            15.986998514115898,
            40.47509709846927
          ]
        ]
      },
      "properties": {
        "tipo": "strada_ams",
        "area_px": 1591,
        "lon_c": 15.978701,
        "lat_c": 40.482547
      }
    },
    {
      "type": "Feature",
      "geometry": {
        "type": "LineString",
        "coordinates": [
          [
            15.976002971768201,
            40.470413525245604
          ],
          [
            15.977527887245085,
            40.465204726286615
          ],
          [
            15.979866270430906,
            40.46007539410555
          ]
        ]
      },
      "properties": {
        "tipo": "strada_ams",
        "area_px": 552,
        "lon_c": 15.977528,
        "lat_c": 40.465205
      }
    },
    {
      "type": "Feature",
      "geometry": {
        "type": "LineString",
        "coordinates": [
          [
            15.969093610698366,
            40.46098926205163
          ],
          [
            16.00049157240548,
            40.43921143090389
          ],
          [
            16.035066864784547,
            40.403415581448485
          ]
        ]
      },
      "properties": {
        "tipo": "strada_ams",
        "area_px": 19101,
        "lon_c": 16.000492,
        "lat_c": 40.439211
      }
    },
    {
      "type": "Feature",
      "geometry": {
        "type": "LineString",
        "coordinates": [
          [
            15.975037147102526,
            40.461046378798265
          ],
          [
            15.977262237791262,
            40.460059120619086
          ],
          [
            15.97964338781575,
            40.45944710989262
          ]
        ]
      },
      "properties": {
        "tipo": "strada_ams",
        "area_px": 179,
        "lon_c": 15.977262,
        "lat_c": 40.460059
      }
    },
    {
      "type": "Feature",
      "geometry": {
        "type": "LineString",
        "coordinates": [
          [
            16.178008915304606,
            40.4284898332191
          ],
          [
            16.189155153699428,
            40.426794879371734
          ],
          [
            16.2,
            40.42300662554261
          ]
        ]
      },
      "properties": {
        "tipo": "strada_ams",
        "area_px": 2679,
        "lon_c": 16.189155,
        "lat_c": 40.426795
      }
    },
    {
      "type": "Feature",
      "geometry": {
        "type": "LineString",
        "coordinates": [
          [
            15.957726597325408,
            40.40981265707106
          ],
          [
            16.05133120367033,
            40.378993139620164
          ],
          [
            16.146656760772657,
            40.33601782042495
          ]
        ]
      },
      "properties": {
        "tipo": "strada_ams",
        "area_px": 52757,
        "lon_c": 16.051331,
        "lat_c": 40.378993
      }
    },
    {
      "type": "Feature",
      "geometry": {
        "type": "LineString",
        "coordinates": [
          [
            15.957652303120357,
            40.38342472012794
          ],
          [
            15.958299185902936,
            40.382125997934146
          ],
          [
            15.959138187221397,
            40.381254283756
          ]
        ]
      },
      "properties": {
        "tipo": "strada_ams",
        "area_px": 355,
        "lon_c": 15.958299,
        "lat_c": 40.382126
      }
    },
    {
      "type": "Feature",
      "geometry": {
        "type": "LineString",
        "coordinates": [
          [
            15.957578008915304,
            40.38039753255655
          ],
          [
            15.96017386992988,
            40.36354455200645
          ],
          [
            15.962704309063893,
            40.34618460132511
          ]
        ]
      },
      "properties": {
        "tipo": "strada_ams",
        "area_px": 4840,
        "lon_c": 15.960174,
        "lat_c": 40.363545
      }
    },
    {
      "type": "Feature",
      "geometry": {
        "type": "LineString",
        "coordinates": [
          [
            16.204266467065867,
            40.42002063983488
          ],
          [
            16.210570542692846,
            40.416169526678466
          ],
          [
            16.21646706586826,
            40.413542024997135
          ]
        ]
      },
      "properties": {
        "tipo": "strada_ams",
        "area_px": 1461,
        "lon_c": 16.210571,
        "lat_c": 40.41617
      }
    },
    {
      "type": "Feature",
      "geometry": {
        "type": "LineString",
        "coordinates": [
          [
            16.216092814371258,
            40.41337002637312
          ],
          [
            16.2184124607927,
            40.41275629160046
          ],
          [
            16.220508982035927,
            40.41119137713565
          ]
        ]
      },
      "properties": {
        "tipo": "strada_ams",
        "area_px": 315,
        "lon_c": 16.218412,
        "lat_c": 40.412756
      }
    },
    {
      "type": "Feature",
      "geometry": {
        "type": "LineString",
        "coordinates": [
          [
            16.220808383233532,
            40.41010205251691
          ],
          [
            16.227119838740748,
            40.404639866545054
          ],
          [
            16.230239520958083,
            40.39886480908153
          ]
        ]
      },
      "properties": {
        "tipo": "strada_ams",
        "area_px": 1492,
        "lon_c": 16.22712,
        "lat_c": 40.40464
      }
    },
    {
      "type": "Feature",
      "geometry": {
        "type": "LineString",
        "coordinates": [
          [
            16.24446107784431,
            40.404712762297905
          ],
          [
            16.24885022754491,
            40.39636034399725
          ],
          [
            16.253967065868263,
            40.38888888888889
          ]
        ]
      },
      "properties": {
        "tipo": "strada_ams",
        "area_px": 3125,
        "lon_c": 16.24885,
        "lat_c": 40.39636
      }
    },
    {
      "type": "Feature",
      "geometry": {
        "type": "LineString",
        "coordinates": [
          [
            16.25434131736527,
            40.404483430799225
          ],
          [
            16.26174989504386,
            40.403292895674056
          ],
          [
            16.270209580838323,
            40.401444788441694
          ]
        ]
      },
      "properties": {
        "tipo": "strada_ams",
        "area_px": 1355,
        "lon_c": 16.26175,
        "lat_c": 40.403293
      }
    },
    {
      "type": "Feature",
      "geometry": {
        "type": "LineString",
        "coordinates": [
          [
            16.270359281437123,
            40.40436876504988
          ],
          [
            16.31075487681503,
            40.382811489239906
          ],
          [
            16.353742514970058,
            40.36670106639147
          ]
        ]
      },
      "properties": {
        "tipo": "strada_ams",
        "area_px": 8979,
        "lon_c": 16.310755,
        "lat_c": 40.382811
      }
    },
    {
      "type": "Feature",
      "geometry": {
        "type": "LineString",
        "coordinates": [
          [
            16.231736526946108,
            40.399208806329554
          ],
          [
            16.234634302822926,
            40.39843172315607
          ],
          [
            16.237350299401196,
            40.39771815158812
          ]
        ]
      },
      "properties": {
        "tipo": "strada_ams",
        "area_px": 399,
        "lon_c": 16.234634,
        "lat_c": 40.398432
      }
    },
    {
      "type": "Feature",
      "geometry": {
        "type": "LineString",
        "coordinates": [
          [
            16.237949101796406,
            40.39869281045752
          ],
          [
            16.242424888594904,
            40.39584299992267
          ],
          [
            16.245883233532933,
            40.39267285861713
          ]
        ]
      },
      "properties": {
        "tipo": "strada_ams",
        "area_px": 1376,
        "lon_c": 16.242425,
        "lat_c": 40.395843
      }
    },
    {
      "type": "Feature",
      "geometry": {
        "type": "LineString",
        "coordinates": [
          [
            16.2375748502994,
            40.398578144708175
          ],
          [
            16.238336922645935,
            40.397932060208234
          ],
          [
            16.238922155688623,
            40.39685815846806
          ]
        ]
      },
      "properties": {
        "tipo": "strada_ams",
        "area_px": 171,
        "lon_c": 16.238337,
        "lat_c": 40.397932
      }
    },
    {
      "type": "Feature",
      "geometry": {
        "type": "LineString",
        "coordinates": [
          [
            16.41511976047904,
            40.382926269923175
          ],
          [
            16.41587482928879,
            40.38237406381451
          ],
          [
            16.416766467065866,
            40.38166494668043
          ]
        ]
      },
      "properties": {
        "tipo": "strada_ams",
        "area_px": 171,
        "lon_c": 16.415875,
        "lat_c": 40.382374
      }
    },
    {
      "type": "Feature",
      "geometry": {
        "type": "LineString",
        "coordinates": [
          [
            16.35396706586826,
            40.382238275427135
          ],
          [
            16.402776293102146,
            40.372221083081904
          ],
          [
            16.45,
            40.361942437793836
          ]
        ]
      },
      "properties": {
        "tipo": "strada_ams",
        "area_px": 11898,
        "lon_c": 16.402776,
        "lat_c": 40.372221
      }
    }
  ]
}